[{"OBJECT_NAME":"STARLINK-35005","OBJECT_ID":"2025-194Y","EPOCH":"2026-03-09T19:58:45.388128","MEAN_MOTION":15.05651135,"ECCENTRICITY":0.00013149,"INCLINATION":97.6018,"RA_OF_ASC_NODE":284.6044,"ARG_OF_PERICENTER":80.5935,"MEAN_ANOMALY":279.544,"EPHEMERIS_TYPE":0,"CLASSIFICATION_TYPE":"U","NORAD_CAT_ID":65456,"ELEMENT_SET_NO":999,"REV_AT_EPOCH":2967,"BSTAR":0.0002459349,"MEAN_MOTION_DOT":3.49e-5,"MEAN_MOTION_DDOT":0},{"OBJECT_NAME":"COSMOS 2251 DEB","OBJECT_ID":"1993-036AZN","EPOCH":"2026-03-08T04:55:11.679456","MEAN_MOTION":14.74823481,"ECCENTRICITY":0.01364476,"INCLINATION":73.9716,"RA_OF_ASC_NODE":347.1087,"ARG_OF_PERICENTER":142.1945,"MEAN_ANOMALY":218.8911,"EPHEMERIS_TYPE":0,"CLASSIFICATION_TYPE":"U","NORAD_CAT_ID":36385,"ELEMENT_SET_NO":999,"REV_AT_EPOCH":86361,"BSTAR":0.002162243,"MEAN_MOTION_DOT":0.00016854,"MEAN_MOTION_DDOT":0}]
